SL-3 R/B                
1 13154U 82039B   25317.93501599  .00007016  00000+0  43358-3 0  9994
2 13154  81.1794 349.2199 0032067 347.0676  12.9723 15.09301057364170
SL-3 R/B                
1 13403U 82079B   25317.97652651  .00012909  00000+0  54020-3 0  9990
2 13403  81.1470 329.5589 0025378 193.7623 166.2921 15.23161159360078
SL-14 R/B               
1 13553U 82092B   25317.79764542  .00001453  00000+0  16104-3 0  9997
2 13553  82.5681 249.7762 0019621 330.0473  59.5405 14.86509545311713
SL-3 R/B                
1 13819U 83010B   25317.26396605  .00024747  00000+0  56768-3 0  9997
2 13819  81.1029 144.5694 0018283  91.5448 268.7889 15.42411475339974
SL-3 R/B                
1 14208U 83075B   25317.92234925  .00022496  00000+0  65196-3 0  9994
2 14208  97.6106 313.4569 0021078 284.9962  74.8948 15.35345389312377
COSMOS 1536             
1 14699U 84013A   25317.62107506  .00017348  00000+0  75460-3 0  9997
2 14699  82.5468 223.0275 0014512 338.7860  21.2772 15.22046663254954
SL-14 R/B               
1 14820U 84027B   25317.53065641  .00001085  00000+0  12164-3 0  9994
2 14820  82.5427 353.9493 0018006   3.3898 356.7437 14.85831169230384
SL-8 R/B                
1 15483U 85006B   25317.45683986  .00000634  00000+0  21930-3 0  9997
2 15483  74.0433 115.0084 0017620  56.6464   4.5444 14.37694707137325
SL-12 R/B(2)            
1 15772U 85042D   25317.49072014  .00000222  00000+0  12128-3 0  9998
2 15772  71.1084 333.2137 0037277 304.2989 164.8963 14.21938083 97875
SL-14 R/B               
1 15945U 85069B   25317.95453793  .00001319  00000+0  14688-3 0  9998
2 15945  82.5245 133.7657 0017966 212.0820 147.9304 14.86275123155646
SL-16 R/B               
1 16182U 85097B   25317.48069700  .00000054  00000+0  51244-4 0  9997
2 16182  71.0045  25.2015 0005288  66.2935  24.5920 14.16576229 70772
SL-14 R/B               
1 16496U 86006B   25317.55576649  .00001500  00000+0  15800-3 0  9993
2 16496  82.5290   9.0099 0075410 298.2364  61.1254 14.86613975131950
